start=new Date('2023-04-30T00:00:00.000Z').valueOf();
sats=[{"MEAN_ANOMALY":"102.6578","CLASSIFICATION_TYPE":"U","GP_ID":"230903741","SEMIMAJOR_AXIS":"6937.205","OBJECT_TYPE":"PAYLOAD","FILE":"3896409","MEAN_MOTION_DOT":"-0.00001478","REF_FRAME":"TEME","NORAD_CAT_ID":"55469","INCLINATION":"43.0006","MEAN_MOTION_DDOT":"0.0000000000000","REV_AT_EPOCH":"1352","MEAN_MOTION":"15.02539857","RA_OF_ASC_NODE":"245.4287","OBJECT_ID":"2023-015W","EPHEMERIS_TYPE":"0","ARG_OF_PERICENTER":"257.4112","TLE_LINE1":"1 55469U 23015W   23119.44637257 -.00001478  00000-0 -94355-4 0  9996","RCS_SIZE":"LARGE","BSTAR":"-0.00009435500000","DECAY_DATE":null,"EPOCH":"2023-04-29T10:42:46.590048","COUNTRY_CODE":"US","ELEMENT_SET_NO":"999","PERIAPSIS":"558.129","SITE":"AFETR","PERIOD":"95.838","ECCENTRICITY":"0.00013560","MEAN_ELEMENT_THEORY":"SGP4","TIME_SYSTEM":"UTC","TLE_LINE2":"2 55469  43.0006 245.4287 0001356 257.4112 102.6578 15.02539857 13528","APOAPSIS":"560.010","OBJECT_NAME":"STARLINK-5681","LAUNCH_DATE":"2023-02-02","CENTER_NAME":"EARTH"},{"DECAY_DATE":null,"EPOCH":"2023-04-29T16:54:29.355552","COUNTRY_CODE":"US","ELEMENT_SET_NO":"999","PERIAPSIS":"558.018","SITE":"AFETR","PERIOD":"95.837","ECCENTRICITY":"0.00015000","MEAN_ELEMENT_THEORY":"SGP4","TIME_SYSTEM":"UTC","TLE_LINE2":"2 55470  43.0002 243.9238 0001500 243.5279 116.5409 15.02543542 13563","OBJECT_NAME":"STARLINK-5708","APOAPSIS":"560.099","LAUNCH_DATE":"2023-02-02","CENTER_NAME":"EARTH","MEAN_ANOMALY":"116.5409","CLASSIFICATION_TYPE":"U","GP_ID":"230935160","SEMIMAJOR_AXIS":"6937.193","OBJECT_TYPE":"PAYLOAD","FILE":"3896614","MEAN_MOTION_DOT":"-0.00000667","REF_FRAME":"TEME","NORAD_CAT_ID":"55470","INCLINATION":"43.0002","MEAN_MOTION_DDOT":"0.0000000000000","REV_AT_EPOCH":"1356","MEAN_MOTION":"15.02543542","RA_OF_ASC_NODE":"243.9238","EPHEMERIS_TYPE":"0","OBJECT_ID":"2023-015X","ARG_OF_PERICENTER":"243.5279","TLE_LINE1":"1 55470U 23015X   23119.70450643 -.00000667  00000-0 -34264-4 0  9991","RCS_SIZE":"LARGE","BSTAR":"-0.00003426400000"},{"PERIAPSIS":"557.847","ECCENTRICITY":"0.00017170","PERIOD":"95.837","SITE":"AFETR","APOAPSIS":"560.230","OBJECT_NAME":"STARLINK-5711","TLE_LINE2":"2 55471  43.0012 243.5425 0001717 302.9662  57.1015 15.02549951 13579","TIME_SYSTEM":"UTC","MEAN_ELEMENT_THEORY":"SGP4","CENTER_NAME":"EARTH","LAUNCH_DATE":"2023-02-02","DECAY_DATE":null,"EPOCH":"2023-04-29T18:25:25.457664","COUNTRY_CODE":"US","ELEMENT_SET_NO":"999","EPHEMERIS_TYPE":"0","OBJECT_ID":"2023-015Y","ARG_OF_PERICENTER":"302.9662","TLE_LINE1":"1 55471U 23015Y   23119.76765576 -.00002132  00000-0 -14275-3 0  9990","BSTAR":"-0.00014275000000","RCS_SIZE":"LARGE","CLASSIFICATION_TYPE":"U","MEAN_ANOMALY":"57.1015","REF_FRAME":"TEME","MEAN_MOTION_DOT":"-0.00002132","OBJECT_TYPE":"PAYLOAD","FILE":"3896622","SEMIMAJOR_AXIS":"6937.174","GP_ID":"230936014","INCLINATION":"43.0012","NORAD_CAT_ID":"55471","RA_OF_ASC_NODE":"243.5425","MEAN_MOTION":"15.02549951","REV_AT_EPOCH":"1357","MEAN_MOTION_DDOT":"0.0000000000000"},{"ARG_OF_PERICENTER":"276.1258","OBJECT_ID":"2023-015Z","EPHEMERIS_TYPE":"0","RCS_SIZE":"LARGE","BSTAR":"-0.03909900000000","TLE_LINE1":"1 55472U 23015Z   23119.58335648 -.00912403  00000-0 -39099-1 0  9994","OBJECT_TYPE":"PAYLOAD","FILE":"3896517","MEAN_MOTION_DOT":"-0.00912403","REF_FRAME":"TEME","GP_ID":"230932853","SEMIMAJOR_AXIS":"6870.086","MEAN_ANOMALY":"3.2393","CLASSIFICATION_TYPE":"U","MEAN_MOTION":"15.24612593","RA_OF_ASC_NODE":"233.6280","MEAN_MOTION_DDOT":"0.0000000000000","REV_AT_EPOCH":"130","NORAD_CAT_ID":"55472","INCLINATION":"42.9976","PERIOD":"94.450","ECCENTRICITY":"0.00012980","SITE":"AFETR","PERIAPSIS":"491.059","CENTER_NAME":"EARTH","LAUNCH_DATE":"2023-02-02","TIME_SYSTEM":"UTC","TLE_LINE2":"2 55472  42.9976 233.6280 0001298 276.1258   3.2393 15.24612593  1309","APOAPSIS":"492.843","OBJECT_NAME":"STARLINK-5705","MEAN_ELEMENT_THEORY":"SGP4","EPOCH":"2023-04-29T14:00:01.999872","DECAY_DATE":null,"ELEMENT_SET_NO":"999","COUNTRY_CODE":"US"},{"EPHEMERIS_TYPE":"0","OBJECT_ID":"2023-015AA","ARG_OF_PERICENTER":"249.0526","TLE_LINE1":"1 55473U 23015AA  23119.69673422 -.00000639  00000-0 -32252-4 0  9998","BSTAR":"-0.00003225200000","RCS_SIZE":"LARGE","CLASSIFICATION_TYPE":"U","MEAN_ANOMALY":"111.0184","REF_FRAME":"TEME","MEAN_MOTION_DOT":"-0.00000639","FILE":"3896587","OBJECT_TYPE":"PAYLOAD","SEMIMAJOR_AXIS":"6937.198","GP_ID":"230934539","INCLINATION":"42.9999","NORAD_CAT_ID":"55473","RA_OF_ASC_NODE":"243.8658","MEAN_MOTION":"15.02542066","REV_AT_EPOCH":"1356","MEAN_MOTION_DDOT":"0.0000000000000","PERIAPSIS":"558.207","ECCENTRICITY":"0.00012340","PERIOD":"95.838","SITE":"AFETR","APOAPSIS":"559.919","OBJECT_NAME":"STARLINK-5687","TLE_LINE2":"2 55473  42.9999 243.8658 0001234 249.0526 111.0184 15.02542066 13564","TIME_SYSTEM":"UTC","MEAN_ELEMENT_THEORY":"SGP4","CENTER_NAME":"EARTH","LAUNCH_DATE":"2023-02-02","DECAY_DATE":null,"EPOCH":"2023-04-29T16:43:17.836608","COUNTRY_CODE":"US","ELEMENT_SET_NO":"999"},{"MEAN_MOTION_DDOT":"0.0000000000000","REV_AT_EPOCH":"1341","RA_OF_ASC_NODE":"257.1559","MEAN_MOTION":"15.02547214","NORAD_CAT_ID":"55474","INCLINATION":"43.0005","GP_ID":"230935502","SEMIMAJOR_AXIS":"6937.182","OBJECT_TYPE":"PAYLOAD","FILE":"3896622","REF_FRAME":"TEME","MEAN_MOTION_DOT":"-0.00000932","MEAN_ANOMALY":"83.0844","CLASSIFICATION_TYPE":"U","RCS_SIZE":"LARGE","BSTAR":"-0.00005389700000","TLE_LINE1":"1 55474U 23015AB  23119.73643630 -.00000932  00000-0 -53897-4 0  9996","ARG_OF_PERICENTER":"276.9816","OBJECT_ID":"2023-015AB","EPHEMERIS_TYPE":"0","ELEMENT_SET_NO":"999","COUNTRY_CODE":"US","EPOCH":"2023-04-29T17:40:28.096320","DECAY_DATE":null,"LAUNCH_DATE":"2023-02-02","CENTER_NAME":"EARTH","MEAN_ELEMENT_THEORY":"SGP4","TLE_LINE2":"2 55474  43.0005 257.1559 0001600 276.9816  83.0844 15.02547214 13416","TIME_SYSTEM":"UTC","APOAPSIS":"560.157","OBJECT_NAME":"STARLINK-5689","SITE":"AFETR","PERIOD":"95.837","ECCENTRICITY":"0.00016000","PERIAPSIS":"557.937"},{"ARG_OF_PERICENTER":"285.7549","EPHEMERIS_TYPE":"0","OBJECT_ID":"2023-015AC","BSTAR":"-0.00009999900000","RCS_SIZE":"LARGE","TLE_LINE1":"1 55475U 23015AC  23119.69340804 -.00001554  00000-0 -99999-4 0  9993","SEMIMAJOR_AXIS":"6937.182","GP_ID":"230935508","MEAN_MOTION_DOT":"-0.00001554","REF_FRAME":"TEME","OBJECT_TYPE":"PAYLOAD","FILE":"3896622","CLASSIFICATION_TYPE":"U","MEAN_ANOMALY":"74.3175","REV_AT_EPOCH":"1356","MEAN_MOTION_DDOT":"0.0000000000000","RA_OF_ASC_NODE":"243.8426","MEAN_MOTION":"15.02547142","INCLINATION":"43.0013","NORAD_CAT_ID":"55475","SITE":"AFETR","ECCENTRICITY":"0.00010700","PERIOD":"95.837","PERIAPSIS":"558.305","LAUNCH_DATE":"2023-02-02","CENTER_NAME":"EARTH","MEAN_ELEMENT_THEORY":"SGP4","APOAPSIS":"559.790","OBJECT_NAME":"STARLINK-5650","TLE_LINE2":"2 55475  43.0013 243.8426 0001070 285.7549  74.3175 15.02547142 13569","TIME_SYSTEM":"UTC","EPOCH":"2023-04-29T16:38:30.454656","DECAY_DATE":null,"ELEMENT_SET_NO":"999","COUNTRY_CODE":"US"},{"APOAPSIS":"356.459","OBJECT_NAME":"STARLINK-5596","TLE_LINE2":"2 55476  43.0035 225.9038 0002187 249.5767 110.4866 15.71368797 13768","TIME_SYSTEM":"UTC","MEAN_ELEMENT_THEORY":"SGP4","CENTER_NAME":"EARTH","LAUNCH_DATE":"2023-02-02","PERIAPSIS":"353.514","ECCENTRICITY":"0.00021870","PERIOD":"91.640","SITE":"AFETR","COUNTRY_CODE":"US","ELEMENT_SET_NO":"999","DECAY_DATE":null,"EPOCH":"2023-04-29T15:26:58.786080","TLE_LINE1":"1 55476U 23015AD  23119.64373595  .00029379  00000-0  22656-3 0  9990","BSTAR":"0.00022656000000","RCS_SIZE":"LARGE","EPHEMERIS_TYPE":"0","OBJECT_ID":"2023-015AD","ARG_OF_PERICENTER":"249.5767","INCLINATION":"43.0035","NORAD_CAT_ID":"55476","RA_OF_ASC_NODE":"225.9038","MEAN_MOTION":"15.71368797","REV_AT_EPOCH":"1376","MEAN_MOTION_DDOT":"0.0000000000000","CLASSIFICATION_TYPE":"U","MEAN_ANOMALY":"110.4866","REF_FRAME":"TEME","MEAN_MOTION_DOT":"0.00029379","FILE":"3896670","OBJECT_TYPE":"PAYLOAD","SEMIMAJOR_AXIS":"6733.121","GP_ID":"230936678"},{"ELEMENT_SET_NO":"999","COUNTRY_CODE":"US","EPOCH":"2023-04-29T14:00:01.999872","DECAY_DATE":null,"LAUNCH_DATE":"2023-02-02","CENTER_NAME":"EARTH","MEAN_ELEMENT_THEORY":"SGP4","TIME_SYSTEM":"UTC","TLE_LINE2":"2 55477  42.9986 233.5021 0001404 272.1811  59.1948 15.25740780  1304","OBJECT_NAME":"STARLINK-5685","APOAPSIS":"489.528","SITE":"AFETR","PERIOD":"94.380","ECCENTRICITY":"0.00014040","PERIAPSIS":"487.600","MEAN_MOTION_DDOT":"0.0000000000000","REV_AT_EPOCH":"130","RA_OF_ASC_NODE":"233.5021","MEAN_MOTION":"15.25740780","NORAD_CAT_ID":"55477","INCLINATION":"42.9986","GP_ID":"230933086","SEMIMAJOR_AXIS":"6866.699","FILE":"3896517","OBJECT_TYPE":"PAYLOAD","MEAN_MOTION_DOT":"-0.00916961","REF_FRAME":"TEME","MEAN_ANOMALY":"59.1948","CLASSIFICATION_TYPE":"U","RCS_SIZE":"LARGE","BSTAR":"-0.03799000000000","TLE_LINE1":"1 55477U 23015AE  23119.58335648 -.00916961  00000-0 -37990-1 0  9990","ARG_OF_PERICENTER":"272.1811","EPHEMERIS_TYPE":"0","OBJECT_ID":"2023-015AE"},{"PERIOD":"94.375","ECCENTRICITY":"0.00013920","SITE":"AFETR","PERIAPSIS":"487.361","CENTER_NAME":"EARTH","LAUNCH_DATE":"2023-02-02","TLE_LINE2":"2 55478  42.9986 233.4902 0001392 274.3895  61.8828 15.25823202  1302","TIME_SYSTEM":"UTC","APOAPSIS":"489.272","OBJECT_NAME":"STARLINK-5691","MEAN_ELEMENT_THEORY":"SGP4","EPOCH":"2023-04-29T14:00:01.999872","DECAY_DATE":null,"ELEMENT_SET_NO":"999","COUNTRY_CODE":"US","ARG_OF_PERICENTER":"274.3895","OBJECT_ID":"2023-015AF","EPHEMERIS_TYPE":"0","RCS_SIZE":"LARGE","BSTAR":"-0.03776100000000","TLE_LINE1":"1 55478U 23015AF  23119.58335648 -.00913945  00000-0 -37761-1 0  9996","OBJECT_TYPE":"PAYLOAD","FILE":"3896517","MEAN_MOTION_DOT":"-0.00913945","REF_FRAME":"TEME","GP_ID":"230931352","SEMIMAJOR_AXIS":"6866.452","MEAN_ANOMALY":"61.8828","CLASSIFICATION_TYPE":"U","MEAN_MOTION":"15.25823202","RA_OF_ASC_NODE":"233.4902","MEAN_MOTION_DDOT":"0.0000000000000","REV_AT_EPOCH":"130","NORAD_CAT_ID":"55478","INCLINATION":"42.9986"}];
